HORIZONS-3E             
1 43633U 18074B   26162.65668676 -.00000014  00000+0  00000+0 0  9990
2 43633   0.0168 153.8582 0000942 115.9640  35.5804  1.00270916 28280
AEHF-4 (USA 288)        
1 43651U 18079A   26162.95321057 -.00000260  00000+0  00000+0 0  9990
2 43651   1.4308   3.4900 0060465 356.4997 175.9018  1.00274447 28243
BEIDOU-3 G1             
1 43683U 18085A   26162.94004743 -.00000094  00000+0  00000+0 0  9996
2 43683   2.8536  97.5359 0008258 348.5084 312.6258  1.00270937 28009
GSAT-29                 
1 43698U 18089A   26162.91924733  .00000101  00000+0  00000+0 0  9991
2 43698   0.0537 106.4164 0003381 329.2505 210.5551  1.00272356 27734
ES'HAIL 2               
1 43700U 18090A   26162.94982951  .00000160  00000+0  00000+0 0  9991
2 43700   0.0178 322.8967 0001570 154.1393 151.0085  1.00267802 27621
GEO-KOMPSAT-2A          
1 43823U 18100A   26162.93372073 -.00000327  00000+0  00000+0 0  9992
2 43823   0.0546 130.4275 0001879 315.1900 279.0514  1.00273740 27576
GSAT-11                 
1 43824U 18100B   26162.91263890 -.00000061  00000+0  00000+0 0  9992
2 43824   0.0424 255.5243 0007709 191.3444 215.9378  1.00271073 27429
GSAT-7A                 
1 43864U 18105A   26162.92080734  .00000000  00000+0  00000+0 0  9998
2 43864   0.0166 341.7049 0001918  78.2177 234.5928  1.00269386 27398
COSMOS 2533             
1 43867U 18107A   26162.93999157 -.00000022  00000+0  00000+0 0  9997
2 43867   0.0454 109.2968 0000166  38.0443 161.3247  1.00270720 27397
TJS-3                   
1 43874U 18110A   26162.70841903 -.00000200  00000+0  00000+0 0  9997
2 43874   2.5299  80.5556 0002055  80.8985 141.8861  1.00271895 27364
ZHONGXING-2D            
1 43920U 19001A   26162.93406740 -.00000320  00000+0  00000+0 0  9993
2 43920   0.0421 249.9062 0001420  95.7795  20.8480  1.00274427 54028
HELLAS-SAT 4 & SGS-1    
1 44034U 19007A   26160.49215899  .00000170  00000+0  00000+0 0  9990
2 44034   0.0659 133.0572 0005087   8.6055 332.4040  1.00272091 27290
GSAT-31                 
1 44035U 19007B   26162.91777399  .00000142  00000+0  00000+0 0  9997
2 44035   0.0785 261.1756 0001869 102.8669 274.4242  1.00272080 26915
NUSANTARA SATU          
1 44048U 19009A   26162.65209341 -.00000218  00000+0  00000+0 0  9996
2 44048   0.0469 134.6869 0004313 344.6822 161.3875  1.00270425 26716
ZHONGXING-6C            
1 44067U 19012A   26162.93415406 -.00000319  00000+0  00000+0 0  9995
2 44067   0.1043  78.6450 0013800 332.0038 316.3200  1.00274184 26686
TIANLIAN 2-01           
1 44076U 19017A   26162.90950892 -.00000090  00000+0  00000+0 0  9996
2 44076   0.5256  83.1162 0000685  20.1323 201.4438  1.00270783 26594
ARABSAT-6A              
1 44186U 19021A   26162.91440167  .00000170  00000+0  00000+0 0  9991
2 44186   0.0521   7.9663 0001717   0.8991 251.0891  1.00269894 26101
BEIDOU-3 IGSO-1         
1 44204U 19023A   26157.95428288 -.00000215  00000+0  00000+0 0  9993
2 44204  58.6799  37.7569 0025434 225.6649  92.8731  1.00294886  7105
BEIDOU-2 G8             
1 44231U 19027A   26162.93701407 -.00000231  00000+0  00000+0 0  9996
2 44231   1.6434  74.5027 0010305 283.0812  24.5577  1.00272784 26023
YAMAL 601               
1 44307U 19031A   26162.91803399  .00000000  00000+0  00000+0 0  9999
2 44307   0.0235   1.1869 0002110  81.1837 197.3757  1.00272267 25875
AT&T T-16               
1 44333U 19034A   26162.88840473 -.00000099  00000+0  00000+0 0  9990
2 44333   0.0245  66.1907 0000751 226.8419 186.1643  1.00270368 25580
EUTELSAT 7C             
1 44334U 19034B   26162.90972166  .00000064  00000+0  00000+0 0  9990
2 44334   0.0734 172.7151 0003003 252.3579 169.6780  1.00271018  6785
BEIDOU-3 IGSO-2         
1 44337U 19035A   26162.98574688 -.00000041  00000+0  00000+0 0  9995
2 44337  55.2458 158.9084 0039925 216.2500 359.8397  1.00267954 25613
COSMOS 2539             
1 44457U 19048A   26162.55415274  .00000098  00000+0  00000+0 0  9991
2 44457   0.0400 103.1991 0000242 141.6449 226.5634  1.00273877 25179
EDRS-C                  
1 44475U 19049A   26162.93658074  .00000000  00000+0  00000+0 0  9994
2 44475   0.0138   0.9455 0000058  75.6448 303.3646  1.00270052 25153
INTELSAT 39 (IS-39)     
1 44476U 19049B   26162.74781906  .00000049  00000+0  00000+0 0  9998
2 44476   0.0022 349.9949 0000686 308.6407 292.6211  1.00273687 25077
AMOS-17                 
1 44479U 19050A   26162.98202784  .00000125  00000+0  00000+0 0  9996
2 44479   0.0250 311.5363 0001612 162.9165 156.3805  1.00270925 25134
AEHF-5 (USA 292)        
1 44481U 19051A   26162.92678736 -.00000242  00000+0  00000+0 0  9999
2 44481   1.4599 335.7660 0066384   0.4215 350.7206  1.00275564 25202
EUTELSAT 5 WEST B       
1 44624U 19067A   26162.90738164 -.00000026  00000+0  00000+0 0  9995
2 44624   0.0625 354.4083 0002978  85.9791 141.5321  1.00271901 24382
TJS-4                   
1 44637U 19070A   26162.92488068  .00000000  00000+0  00000+0 0  9991
2 44637   0.0231 346.8464 0004504  52.6388 277.2283  1.00268009 24487
BEIDOU-3 IGSO-3         
1 44709U 19073A   26136.81046384 -.00000217  00000+0  00000+0 0  9995
2 44709  54.8566 281.2355 0042953 189.4588 170.3676  1.00246251 24144
