OBJECT_NAME,OBJECT_ID,EPOCH,MEAN_MOTION,ECCENTRICITY,INCLINATION,RA_OF_ASC_NODE,ARG_OF_PERICENTER,MEAN_ANOMALY,EPHEMERIS_TYPE,CLASSIFICATION_TYPE,NORAD_CAT_ID,ELEMENT_SET_NO,REV_AT_EPOCH,BSTAR,MEAN_MOTION_DOT,MEAN_MOTION_DDOT
HORIZONS-3E,2018-074B,2026-06-11T15:45:37.736064,1.00270916,.00009425,0.0168,153.8582,115.9640,35.5804,0,U,43633,999,2828,0,-.14E-6,0
AEHF-4 (USA 288),2018-079A,2026-06-11T22:52:37.393248,1.00274447,.0060465,1.4308,3.4900,356.4997,175.9018,0,U,43651,999,2824,0,-.26E-5,0
BEIDOU-3 G1,2018-085A,2026-06-11T22:33:40.097952,1.00270937,.00082588,2.8536,97.5359,348.5084,312.6258,0,U,43683,999,2800,0,-.94E-6,0
GSAT-29,2018-089A,2026-06-11T22:03:42.969312,1.00272356,.00033816,0.0537,106.4164,329.2505,210.5551,0,U,43698,999,2773,0,.101E-5,0
ES'HAIL 2,2018-090A,2026-06-11T22:47:45.269664,1.00267802,.00015709,0.0178,322.8967,154.1393,151.0085,0,U,43700,999,2762,0,.16E-5,0
GEO-KOMPSAT-2A,2018-100A,2026-06-11T22:24:33.471072,1.00273740,.00018796,0.0546,130.4275,315.1900,279.0514,0,U,43823,999,2757,0,-.327E-5,0
GSAT-11,2018-100B,2026-06-11T21:54:12.000960,1.00271073,.00077097,0.0424,255.5243,191.3444,215.9378,0,U,43824,999,2742,0,-.61E-6,0
GSAT-7A,2018-105A,2026-06-11T22:05:57.754176,1.00269386,.00019184,0.0166,341.7049,78.2177,234.5928,0,U,43864,999,2739,0,0,0
COSMOS 2533,2018-107A,2026-06-11T22:33:35.271648,1.00270720,.00001663,0.0454,109.2968,38.0443,161.3247,0,U,43867,999,2739,0,-.22E-6,0
TJS-3,2018-110A,2026-06-11T17:00:07.404192,1.00271895,.0002055,2.5299,80.5556,80.8985,141.8861,0,U,43874,999,2736,0,-.2E-5,0
ZHONGXING-2D,2019-001A,2026-06-11T22:25:03.423360,1.00274427,.00014202,0.0421,249.9062,95.7795,20.8480,0,U,43920,999,5402,0,-.32E-5,0
HELLAS-SAT 4 & SGS-1,2019-007A,2026-06-09T11:48:42.536736,1.00272091,.00050878,0.0659,133.0572,8.6055,332.4040,0,U,44034,999,2729,0,.17E-5,0
GSAT-31,2019-007B,2026-06-11T22:01:35.672736,1.00272080,.00018691,0.0785,261.1756,102.8669,274.4242,0,U,44035,999,2691,0,.142E-5,0
NUSANTARA SATU,2019-009A,2026-06-11T15:39:00.870624,1.00270425,.00043138,0.0469,134.6869,344.6822,161.3875,0,U,44048,999,2671,0,-.218E-5,0
ZHONGXING-6C,2019-012A,2026-06-11T22:25:10.910784,1.00274184,.00138005,0.1043,78.6450,332.0038,316.3200,0,U,44067,999,2668,0,-.319E-5,0
TIANLIAN 2-01,2019-017A,2026-06-11T21:49:41.570688,1.00270783,.00006857,0.5256,83.1162,20.1323,201.4438,0,U,44076,999,2659,0,-.9E-6,0
ARABSAT-6A,2019-021A,2026-06-11T21:56:44.304288,1.00269894,.00017177,0.0521,7.9663,0.8991,251.0891,0,U,44186,999,2610,0,.17E-5,0
BEIDOU-3 IGSO-1,2019-023A,2026-06-06T22:54:10.040832,1.00294886,.00254341,58.6799,37.7569,225.6649,92.8731,0,U,44204,999,710,0,-.215E-5,0
BEIDOU-2 G8,2019-027A,2026-06-11T22:29:18.015648,1.00272784,.00103052,1.6434,74.5027,283.0812,24.5577,0,U,44231,999,2602,0,-.231E-5,0
YAMAL 601,2019-031A,2026-06-11T22:01:58.136736,1.00272267,.00021105,0.0235,1.1869,81.1837,197.3757,0,U,44307,999,2587,0,0,0
AT&T T-16,2019-034A,2026-06-11T21:19:18.168672,1.00270368,.0000751,0.0245,66.1907,226.8419,186.1643,0,U,44333,999,2558,0,-.99E-6,0
EUTELSAT 7C,2019-034B,2026-06-11T21:49:59.951424,1.00271018,.00030036,0.0734,172.7151,252.3579,169.6780,0,U,44334,999,678,0,.64E-6,0
BEIDOU-3 IGSO-2,2019-035A,2026-06-11T23:39:28.530432,1.00267954,.00399259,55.2458,158.9084,216.2500,359.8397,0,U,44337,999,2561,0,-.41E-6,0
COSMOS 2539,2019-048A,2026-06-11T13:17:58.796736,1.00273877,.0000242,0.0400,103.1991,141.6449,226.5634,0,U,44457,999,2517,0,.98E-6,0
EDRS-C,2019-049A,2026-06-11T22:28:40.575936,1.00270052,.00000582,0.0138,0.9455,75.6448,303.3646,0,U,44475,999,2515,0,0,0
INTELSAT 39 (IS-39),2019-049B,2026-06-11T17:56:51.566784,1.00273687,.00006866,0.0022,349.9949,308.6407,292.6211,0,U,44476,999,2507,0,.49E-6,0
AMOS-17,2019-050A,2026-06-11T23:34:07.205376,1.00270925,.00016128,0.0250,311.5363,162.9165,156.3805,0,U,44479,999,2513,0,.125E-5,0
AEHF-5 (USA 292),2019-051A,2026-06-11T22:14:34.427904,1.00275564,.00663847,1.4599,335.7660,0.4215,350.7206,0,U,44481,999,2520,0,-.242E-5,0
EUTELSAT 5 WEST B,2019-067A,2026-06-11T21:46:37.773696,1.00271901,.00029784,0.0625,354.4083,85.9791,141.5321,0,U,44624,999,2438,0,-.26E-6,0
TJS-4,2019-070A,2026-06-11T22:11:49.690752,1.00268009,.00045042,0.0231,346.8464,52.6388,277.2283,0,U,44637,999,2448,0,0,0
BEIDOU-3 IGSO-3,2019-073A,2026-05-16T19:27:04.075776,1.00246251,.0042953,54.8566,281.2355,189.4588,170.3676,0,U,44709,999,2414,0,-.217E-5,0
